NORAD_CAT_ID,OBJECT_NAME,OBJECT_TYPE,EPOCH,MEAN_MOTION,ECCENTRICITY,INCLINATION,RA_OF_ASC_NODE,ARG_OF_PERICENTER,MEAN_ANOMALY,BSTAR,MEAN_MOTION_DOT,MEAN_MOTION_DDOT,TLE_LINE0,TLE_LINE1,TLE_LINE2,SEMIMAJOR_AXIS,PERIOD,APOGEE,PERIGEE,DECAYED
55396.0,STARLINK-5283,PAYLOAD,2023-10-20 12:05:54,14.98328134,0.0002927,70.0,100.893,272.3621,87.7203,-4.6296e-05,-6.45e-06,0.0,0 STARLINK-5283,1 55396U 23014F   23293.50410494 -.00000645  00000-0 -46296-4 0  9992,2 55396  70.0000 100.8930 0002927 272.3621  87.7203 14.98328134 40623,6950.199,96.107,574.098,570.029,0.0
55396.0,STARLINK-5283,PAYLOAD,2023-10-20 21:42:42,14.9835879,0.0002586,69.9991,99.883,263.6804,96.4061,-0.00059543,-7.195e-05,0.0,0 STARLINK-5283,1 55396U 23014F   23293.90465816 -.00007195  00000-0 -59543-3 0  9999,2 55396  69.9991  99.8830 0002586 263.6804  96.4061 14.98358790 41623,6950.104,96.105,573.766,570.172,0.0
55396.0,STARLINK-5283,PAYLOAD,2023-10-21 12:07:55,14.98336461,0.000288,69.999,98.3681,271.4452,88.6377,-0.00013934,-1.755e-05,0.0,0 STARLINK-5283,1 55396U 23014F   23294.50550383 -.00001755  00000-0 -13934-3 0  9990,2 55396  69.9990  98.3681 0002880 271.4452  88.6377 14.98336461 40772,6950.173,96.107,574.04,570.036,0.0
55396.0,STARLINK-5283,PAYLOAD,2023-10-21 21:44:43,14.98331016,0.00029,69.999,97.3582,269.9292,90.1535,-2.9495e-05,-4.45e-06,0.0,0 STARLINK-5283,1 55396U 23014F   23294.90606319 -.00000445  00000-0 -29495-4 0  9990,2 55396  69.9990  97.3582 0002900 269.9292  90.1535 14.98331016 41774,6950.19,96.107,574.07,570.039,0.0
55396.0,STARLINK-5283,PAYLOAD,2023-10-22 12:09:56,14.98326573,0.0002935,69.9986,95.8428,268.7653,91.317,3.1214e-05,2.79e-06,0.0,0 STARLINK-5283,1 55396U 23014F   23295.50690451  .00000279  00000-0  31214-4 0  9992,2 55396  69.9986  95.8428 0002935 268.7653  91.3170 14.98326573 40923,6950.203,96.107,574.108,570.029,0.0
55396.0,STARLINK-5283,PAYLOAD,2023-10-22 13:46:04,14.98326467,0.0002938,69.9985,95.6744,268.7971,91.2852,2.9429e-05,2.58e-06,0.0,0 STARLINK-5283,1 55396U 23014F   23295.57366473  .00000258  00000-0  29429-4 0  9995,2 55396  69.9985  95.6744 0002938 268.7971  91.2852 14.98326467 41870,6950.204,96.107,574.111,570.027,0.0
55396.0,STARLINK-5283,PAYLOAD,2023-10-22 20:10:36,14.98328501,0.000309,69.9986,95.0007,268.9684,91.1121,2.595e-05,2.17e-06,0.0,0 STARLINK-5283,1 55396U 23014F   23295.84070379  .00000217  00000-0  25950-4 0  9992,2 55396  69.9986  95.0007 0003090 268.9684  91.1121 14.98328501 41914,6950.198,96.107,574.21,569.915,0.0
55396.0,STARLINK-5283,PAYLOAD,2023-10-23 12:11:57,14.98331618,0.0003097,69.9986,93.3174,268.7721,91.3084,1.936e-05,1.38e-06,0.0,0 STARLINK-5283,1 55396U 23014F   23296.50830227  .00000138  00000-0  19360-4 0  9992,2 55396  69.9986  93.3174 0003097 268.7721  91.3084 14.98331618 41077,6950.188,96.107,574.205,569.9,0.0
55396.0,STARLINK-5283,PAYLOAD,2023-10-23 20:12:37,14.98334092,0.0003095,69.9987,92.4758,268.8123,91.2682,4.4746e-05,4.41e-06,0.0,0 STARLINK-5283,1 55396U 23014F   23296.84209936  .00000441  00000-0  44746-4 0  9999,2 55396  69.9987  92.4758 0003095 268.8123  91.2682 14.98334092 42063,6950.18,96.107,574.196,569.894,0.0
55396.0,STARLINK-5283,PAYLOAD,2023-10-24 12:13:58,14.98328292,0.000311,69.9986,90.7924,268.6748,91.4054,1.9232e-05,1.36e-06,0.0,0 STARLINK-5283,1 55396U 23014F   23297.50970274  .00000136  00000-0  19232-4 0  9996,2 55396  69.9986  90.7924 0003110 268.6748  91.4054 14.98328292 42168,6950.198,96.107,574.225,569.902,0.0
55396.0,STARLINK-5283,PAYLOAD,2023-10-25 13:52:07,14.98332626,0.0003043,69.9992,88.0993,269.3399,90.7411,-1.4646e-05,-2.68e-06,0.0,0 STARLINK-5283,1 55396U 23014F   23298.57786005 -.00000268  00000-0 -14646-4 0  9993,2 55396  69.9992  88.0993 0003043 269.3399  90.7411 14.98332626 41384,6950.185,96.107,574.165,569.935,0.0
55396.0,STARLINK-5283,PAYLOAD,2023-10-26 13:54:08,14.98328586,0.0003066,69.9997,85.575,271.0917,88.9891,-1.1239e-05,-2.27e-06,0.0,0 STARLINK-5283,1 55396U 23014F   23299.57926136 -.00000227  00000-0 -11239-4 0  9995,2 55396  69.9997  85.5750 0003066 271.0917  88.9891 14.98328586 42475,6950.197,96.107,574.193,569.931,0.0
55396.0,STARLINK-5283,PAYLOAD,2023-10-26 18:42:32,14.98332096,0.0002949,69.9999,85.0706,268.7185,91.3636,3.6294e-05,3.4e-06,0.0,0 STARLINK-5283,1 55396U 23014F   23299.77953764  .00000340  00000-0  36294-4 0  9996,2 55396  69.9999  85.0706 0002949 268.7185  91.3636 14.98332096 41567,6950.186,96.107,574.101,570.002,0.0
55396.0,STARLINK-5283,PAYLOAD,2023-10-26 20:18:40,14.98332742,0.0002949,69.9999,84.9023,268.7226,91.3596,4.2377e-05,4.13e-06,0.0,0 STARLINK-5283,1 55396U 23014F   23299.84629695  .00000413  00000-0  42377-4 0  9997,2 55396  69.9999  84.9023 0002949 268.7226  91.3596 14.98332742 42512,6950.184,96.107,574.099,570.0,0.0
55396.0,STARLINK-5283,PAYLOAD,2023-10-27 10:43:52,14.98334574,0.0002926,69.9998,83.3868,269.6225,90.4599,1.6649e-05,1.06e-06,0.0,0 STARLINK-5283,1 55396U 23014F   23300.44713544  .00000106  00000-0  16649-4 0  9995,2 55396  69.9998  83.3868 0002926 269.6225  90.4599 14.98334574 42603,6950.179,96.107,574.077,570.01,0.0
55396.0,STARLINK-5283,PAYLOAD,2023-10-27 15:32:16,14.98335081,0.0002931,70.0001,82.8822,269.4405,90.6418,3.5901e-05,3.35e-06,0.0,0 STARLINK-5283,1 55396U 23014F   23300.64741384  .00000335  00000-0  35901-4 0  9996,2 55396  70.0001  82.8822 0002931 269.4405  90.6418 14.98335081 42638,6950.177,96.107,574.079,570.005,0.0
55396.0,STARLINK-5283,PAYLOAD,2023-10-28 10:45:54,14.98321623,0.000289,70.0002,80.8631,272.0399,88.0429,-6.0216e-05,-8.11e-06,0.0,0 STARLINK-5283,1 55396U 23014F   23301.44854451 -.00000811  00000-0 -60216-4 0  9993,2 55396  70.0002  80.8631 0002890 272.0399  88.0429 14.98321623 41810,6950.219,96.108,574.092,570.075,0.0
55396.0,STARLINK-5283,PAYLOAD,2023-10-28 13:58:10,14.98324038,0.0002752,70.0002,80.526,272.7866,87.2978,-6.1395e-05,-8.25e-06,0.0,0 STARLINK-5283,1 55396U 23014F   23301.58206386 -.00000825  00000-0 -61395-4 0  9990,2 55396  70.0002  80.5260 0002752 272.7866  87.2978 14.98324038 42777,6950.211,96.107,573.989,570.164,0.0
55396.0,STARLINK-5283,PAYLOAD,2023-10-28 20:22:42,14.98325197,0.000292,69.9998,79.8522,271.7293,88.3532,-3.2905e-05,-4.86e-06,0.0,0 STARLINK-5283,1 55396U 23014F   23301.84910281 -.00000486  00000-0 -32905-4 0  9993,2 55396  69.9998  79.8522 0002920 271.7293  88.3532 14.98325197 42810,6950.208,96.107,574.102,570.043,0.0
55396.0,STARLINK-5283,PAYLOAD,2023-10-29 02:47:14,14.9832317,0.0003002,69.9994,79.1782,274.7953,85.2863,0.00011048,1.225e-05,0.0,0 STARLINK-5283,1 55396U 23014F   23302.11614108  .00001225  00000-0  11048-3 0  9997,2 55396  69.9994  79.1782 0003002 274.7953  85.2863 14.98323170 41917,6950.214,96.107,574.165,569.993,0.0
55396.0,STARLINK-5283,PAYLOAD,2023-10-29 12:24:02,14.98335257,0.0003147,69.9995,78.1686,272.3959,87.6839,3.5235e-05,3.27e-06,0.0,0 STARLINK-5283,1 55396U 23014F   23302.51669381  .00000327  00000-0  35235-4 0  9991,2 55396  69.9995  78.1686 0003147 272.3959  87.6839 14.98335257 41974,6950.177,96.107,574.229,569.854,0.0
55396.0,STARLINK-5283,PAYLOAD,2023-10-29 14:00:10,14.98335748,0.0003142,69.9996,78.0002,272.3717,87.7082,4.6941e-05,4.67e-06,0.0,0 STARLINK-5283,1 55396U 23014F   23302.58345253  .00000467  00000-0  46941-4 0  9998,2 55396  69.9996  78.0002 0003142 272.3717  87.7082 14.98335748 42925,6950.175,96.107,574.224,569.856,0.0
55396.0,STARLINK-5283,PAYLOAD,2023-10-29 18:48:33,14.98343342,0.0003099,69.9995,77.4949,271.5166,88.5638,0.00010819,1.199e-05,0.0,0 STARLINK-5283,1 55396U 23014F   23302.78372463  .00001199  00000-0  10819-3 0  9990,2 55396  69.9995  77.4949 0003099 271.5166  88.5638 14.98343342 42012,6950.152,96.106,574.17,569.863,0.0
55396.0,STARLINK-5283,PAYLOAD,2023-10-30 12:26:05,14.98302726,0.0003041,70.0004,75.6443,271.4687,88.6124,-0.00017931,-2.23e-05,0.0,0 STARLINK-5283,1 55396U 23014F   23303.51812162 -.00002230  00000-0 -17931-3 0  9998,2 55396  70.0004  75.6443 0003041 271.4687  88.6124 14.98302726 42123,6950.277,96.109,574.256,570.029,0.0
55396.0,STARLINK-5283,PAYLOAD,2023-10-30 18:50:38,14.98304014,0.0003,70.0003,74.9707,271.93,88.1515,-7.8791e-05,-1.032e-05,0.0,0 STARLINK-5283,1 55396U 23014F   23303.78516210 -.00001032  00000-0 -78791-4 0  9993,2 55396  70.0003  74.9707 0003000 271.9300  88.1515 14.98304014 43109,6950.273,96.109,574.223,570.053,0.0
55396.0,STARLINK-5283,PAYLOAD,2023-10-31 02:51:17,14.98316181,0.0003176,70.0001,74.1293,271.1588,88.9207,-0.00010088,-1.296e-05,0.0,0 STARLINK-5283,1 55396U 23014F   23304.11895811 -.00001296  00000-0 -10088-3 0  9994,2 55396  70.0001  74.1293 0003176 271.1588  88.9207 14.98316181 42218,6950.236,96.108,574.308,569.893,0.0
55396.0,STARLINK-5283,PAYLOAD,2023-10-31 12:28:06,14.98323411,0.000311,70.0004,73.1193,271.7179,88.3623,-0.00010938,-1.398e-05,0.0,0 STARLINK-5283,1 55396U 23014F   23304.51951685 -.00001398  00000-0 -10938-3 0  9997,2 55396  70.0004  73.1193 0003110 271.7179  88.3623 14.98323411 43210,6950.213,96.107,574.24,569.917,0.0
55396.0,STARLINK-5283,PAYLOAD,2023-10-31 18:52:38,14.98329986,0.000301,70.0005,72.4463,268.3776,91.7038,-4.5501e-05,-6.36e-06,0.0,0 STARLINK-5283,1 55396U 23014F   23304.78655194 -.00000636  00000-0 -45501-4 0  9991,2 55396  70.0005  72.4463 0003010 268.3776  91.7038 14.98329986 42318,6950.193,96.107,574.15,569.966,0.0
55396.0,STARLINK-5283,PAYLOAD,2023-11-01 12:30:06,14.98331957,0.0002934,70.0001,70.5946,271.6316,88.4507,0.00023957,2.767e-05,0.0,0 STARLINK-5283,1 55396U 23014F   23305.52090392  .00002767  00000-0  23957-3 0  9992,2 55396  70.0001  70.5946 0002934 271.6316  88.4507 14.98331957 42427,6950.187,96.107,574.091,570.013,0.0
55396.0,STARLINK-5283,PAYLOAD,2023-11-01 14:06:14,14.98332255,0.0002878,70.0004,70.4263,273.5393,86.5437,0.00027105,3.143e-05,0.0,0 STARLINK-5283,1 55396U 23014F   23305.58766302  .00003143  00000-0  27105-3 0  9997,2 55396  70.0004  70.4263 0002878 273.5393  86.5437 14.98332255 43372,6950.186,96.107,574.051,570.051,0.0
